$$SOE
2459580.500000000, A.D. 2022-Jan-01 00:00:00.0000, 1.812714138766872E+08, 2.949265541595414E+08, 8.242469365099217E+07,
2459587.500000000, A.D. 2022-Jan-08 00:00:00.0000, 1.707617643859397E+08, 3.013741512144295E+08, 8.244662682357797E+07,
2459594.500000000, A.D. 2022-Jan-15 00:00:00.0000, 1.600684806734518E+08, 3.074976666513489E+08, 8.237990398898517E+07,
2459601.500000000, A.D. 2022-Jan-22 00:00:00.0000, 1.492034285685058E+08, 3.132912190240990E+08, 8.222478489370275E+07,
2459608.500000000, A.D. 2022-Jan-29 00:00:00.0000, 1.381786667718870E+08, 3.187494305713336E+08, 8.198165522064443E+07,
2459615.500000000, A.D. 2022-Feb-05 00:00:00.0000, 1.270064168575682E+08, 3.238674338811284E+08, 8.165102481414662E+07,
2459622.500000000, A.D. 2022-Feb-12 00:00:00.0000, 1.156990352585433E+08, 3.286408756397041E+08, 8.123352522171789E+07,
2459629.500000000, A.D. 2022-Feb-19 00:00:00.0000, 1.042689860675463E+08, 3.330659198368071E+08, 8.072990688634031E+07,
2459636.500000000, A.D. 2022-Feb-26 00:00:00.0000, 9.272881348830910E+07, 3.371392497199326E+08, 8.014103607052757E+07,
2459643.500000000, A.D. 2022-Mar-05 00:00:00.0000, 8.109111423903748E+07, 3.408580679119362E+08, 7.946789147065553E+07,
2459650.500000000, A.D. 2022-Mar-12 00:00:00.0000, 6.936851026758270E+07, 3.442200946713181E+08, 7.871156052170144E+07,
2459657.500000000, A.D. 2022-Mar-19 00:00:00.0000, 5.757362198030717E+07, 3.472235643799840E+08, 7.787323541554403E+07,
2459664.500000000, A.D. 2022-Mar-26 00:00:00.0000, 4.571904212984946E+07, 3.498672203199711E+08, 7.695420885882433E+07,
2459671.500000000, A.D. 2022-Apr-02 00:00:00.0000, 3.381731054317133E+07, 3.521503077602943E+08, 7.595586958897254E+07,
2459678.500000000, A.D. 2022-Apr-09 00:00:00.0000, 2.188089006529725E+07, 3.540725654444054E+08, 7.487969765387879E+07,
2459685.500000000, A.D. 2022-Apr-16 00:00:00.0000, 9.922144168479584E+06, 3.556342162267223E+08, 7.372725950667578E+07,
2459692.500000000, A.D. 2022-Apr-23 00:00:00.0000, -2.046684958113763E+06, 3.568359580444920E+08, 7.250020315158439E+07,
2459699.500000000, A.D. 2022-Apr-30 00:00:00.0000, -1.401349963356116E+07, 3.576789530796852E+08, 7.120025335702525E+07,
2459706.500000000, A.D. 2022-May-07 00:00:00.0000, -2.596636810673535E+07, 3.581648132383523E+08, 6.982920652147895E+07,
2459713.500000000, A.D. 2022-May-14 00:00:00.0000, -3.789354273946439E+07, 3.582955851012895E+08, 6.838892534361064E+07,
2459720.500000000, A.D. 2022-May-21 00:00:00.0000, -4.978347694129974E+07, 3.580737352185159E+08, 6.688133357266860E+07,
2459727.500000000, A.D. 2022-May-28 00:00:00.0000, -6.162484130669393E+07, 3.575021348969558E+08, 6.530841082965429E+07,
2459734.500000000, A.D. 2022-Jun-04 00:00:00.0000, -7.340653866155566E+07, 3.565840442768424E+08, 6.367218747238918E+07,
2459741.500000000, A.D. 2022-Jun-11 00:00:00.0000, -8.511771786819321E+07, 3.553230958065372E+08, 6.197473951422325E+07,
2459748.500000000, A.D. 2022-Jun-18 00:00:00.0000, -9.674778635260856E+07, 3.537232772339493E+08, 6.021818361507250E+07,
2459755.500000000, A.D. 2022-Jun-25 00:00:00.0000, -1.082864213358517E+08, 3.517889141825984E+08, 5.840467215872690E+07,
2459762.500000000, A.D. 2022-Jul-02 00:00:00.0000, -1.197235796544549E+08, 3.495246523433586E+08, 5.653638841626973E+07,
2459769.500000000, A.D. 2022-Jul-09 00:00:00.0000, -1.310495058062691E+08, 3.469354395506642E+08, 5.461554178999645E+07,
2459776.500000000, A.D. 2022-Jul-16 00:00:00.0000, -1.422547383109967E+08, 3.440265089136373E+08, 5.264436324558544E+07,
2459783.500000000, A.D. 2022-Jul-23 00:00:00.0000, -1.533301166229030E+08, 3.408033631647825E+08, 5.062510115314957E+07,
2459790.500000000, A.D. 2022-Jul-30 00:00:00.0000, -1.642667885509591E+08, 3.372717569473824E+08, 4.856001726497363E+07,
2459797.500000000, A.D. 2022-Aug-06 00:00:00.0000, -1.750562146352505E+08, 3.334376777528811E+08, 4.645138256054927E+07,
2459804.500000000, A.D. 2022-Aug-13 00:00:00.0000, -1.856901703588829E+08, 3.293073283292871E+08, 4.430147326748422E+07,
2459811.500000000, A.D. 2022-Aug-20 00:00:00.0000, -1.961607478170677E+08, 3.248871101198800E+08, 4.211256716672039E+07,
2459818.500000000, A.D. 2022-Aug-27 00:00:00.0000, -2.064603568264667E+08, 3.201836070564662E+08, 3.988694011941853E+07,
2459825.500000000, A.D. 2022-Sep-03 00:00:00.0000, -2.165817252794811E+08, 3.152035696386486E+08, 3.762686278504340E+07,
2459832.500000000, A.D. 2022-Sep-10 00:00:00.0000, -2.265178987077588E+08, 3.099538993572608E+08, 3.533459752443433E+07,
2459839.500000000, A.D. 2022-Sep-17 00:00:00.0000, -2.362622390833002E+08, 3.044416334883376E+08, 3.301239548459600E+07,
2459846.500000000, A.D. 2022-Sep-24 00:00:00.0000, -2.458084228579749E+08, 2.986739302321972E+08, 3.066249385497193E+07,
2459853.500000000, A.D. 2022-Oct-01 00:00:00.0000, -2.551504380631346E+08, 2.926580541999780E+08, 2.828711327023630E+07,
2459860.500000000, A.D. 2022-Oct-08 00:00:00.0000, -2.642825801209019E+08, 2.864013627918366E+08, 2.588845536243419E+07,
2459867.500000000, A.D. 2022-Oct-15 00:00:00.0000, -2.731994473550701E+08, 2.799112946835946E+08, 2.346870064194018E+07,
2459874.500000000, A.D. 2022-Oct-22 00:00:00.0000, -2.818959384366362E+08, 2.731953587519161E+08, 2.103000676449114E+07,
2459881.500000000, A.D. 2022-Oct-29 00:00:00.0000, -2.903672493124235E+08, 2.662611208512128E+08, 1.857450673707570E+07,
2459888.500000000, A.D. 2022-Nov-05 00:00:00.0000, -2.986088675626189E+08, 2.591161911796305E+08, 1.610430708784330E+07,
2459895.500000000, A.D. 2022-Nov-12 00:00:00.0000, -3.066165662023166E+08, 2.517682134982779E+08, 1.362148627756934E+07,
2459902.500000000, A.D. 2022-Nov-19 00:00:00.0000, -3.143863976928080E+08, 2.442248552477735E+08, 1.112809333407414E+07,
2459909.500000000, A.D. 2022-Nov-26 00:00:00.0000, -3.219146879417113E+08, 2.364937981583902E+08, 8.626146646272525E+06,
2459916.500000000, A.D. 2022-Dec-03 00:00:00.0000, -3.291980301652550E+08, 2.285827293325086E+08, 6.117632894859359E+06,
2459923.500000000, A.D. 2022-Dec-10 00:00:00.0000, -3.362332786047079E+08, 2.204993328066036E+08, 3.604506110133305E+06,
2459930.500000000, A.D. 2022-Dec-17 00:00:00.0000, -3.430175421074727E+08, 2.122512815549233E+08, 1.088686845791519E+06,
2459937.500000000, A.D. 2022-Dec-24 00:00:00.0000, -3.495481774961900E+08, 2.038462298548345E+08, -1.427938553544611E+06,
2459944.500000000, A.D. 2022-Dec-31 00:00:00.0000, -3.558227823983788E+08, 1.952918061058409E+08, -3.943518621831790E+06,
2459951.500000000, A.D. 2023-Jan-07 00:00:00.0000, -3.618391874417883E+08, 1.865956070477610E+08, -6.456237317375951E+06,
2459958.500000000, A.D. 2023-Jan-14 00:00:00.0000, -3.675954498096176E+08, 1.777651938572814E+08, -8.964314230513550E+06,
2459965.500000000, A.D. 2023-Jan-21 00:00:00.0000, -3.730898488265085E+08, 1.688080869342791E+08, -1.146600466016540E+07,
2459972.500000000, A.D. 2023-Jan-28 00:00:00.0000, -3.783208799269897E+08, 1.597317591662937E+08, -1.395959991795420E+07,
2459979.500000000, A.D. 2023-Feb-04 00:00:00.0000, -3.832872472309725E+08, 1.505436306783291E+08, -1.644342759894498E+07,
2459986.500000000, A.D. 2023-Feb-11 00:00:00.0000, -3.879878565406883E+08, 1.412510648543265E+08, -1.891585167618360E+07,
2459993.500000000, A.D. 2023-Feb-18 00:00:00.0000, -3.924218088397504E+08, 1.318613647903160E+08, -2.137527248657092E+07,
2460000.500000000, A.D. 2023-Feb-25 00:00:00.0000, -3.965883940443927E+08, 1.223817700005045E+08, -2.382012665084590E+07,
2460007.500000000, A.D. 2023-Mar-04 00:00:00.0000, -4.004870849148890E+08, 1.128194533769754E+08, -2.624888694042282E+07,
2460014.500000000, A.D. 2023-Mar-11 00:00:00.0000, -4.041175311074343E+08, 1.031815183847616E+08, -2.866006209818086E+07,
2460021.500000000, A.D. 2023-Mar-18 00:00:00.0000, -4.074795533275858E+08, 9.347499642388417E+07, -3.105219662577407E+07,
2460028.500000000, A.D. 2023-Mar-25 00:00:00.0000, -4.105731373897168E+08, 8.370684429243660E+07, -3.342387056397993E+07,
2460035.500000000, A.D. 2023-Apr-01 00:00:00.0000, -4.133984277653030E+08, 7.388394212602365E+07, -3.577369927679457E+07,
2460042.500000000, A.D. 2023-Apr-08 00:00:00.0000, -4.159557212422762E+08, 6.401309302109906E+07, -3.810033308665565E+07,
2460049.500000000, A.D. 2023-Apr-15 00:00:00.0000, -4.182454630398912E+08, 5.410102321949621E+07, -4.040245664112368E+07,
2460056.500000000, A.D. 2023-Apr-22 00:00:00.0000, -4.202682435774836E+08, 4.415437978833542E+07, -4.267878843099313E+07,
2460063.500000000, A.D. 2023-Apr-29 00:00:00.0000, -4.220247931648719E+08, 3.417972803636923E+07, -4.492808053028013E+07,
2460070.500000000, A.D. 2023-May-06 00:00:00.0000, -4.235159763737471E+08, 2.418355043445817E+07, -4.714911825387877E+07,
2460077.500000000, A.D. 2023-May-13 00:00:00.0000, -4.247427870671225E+08, 1.417224613271511E+07, -4.934071971939258E+07,
2460084.500000000, A.D. 2023-May-20 00:00:00.0000, -4.257063438525373E+08, 4.152130570958354E+06, -5.150173537759487E+07,
2460091.500000000, A.D. 2023-May-27 00:00:00.0000, -4.264078857630773E+08, -5.870564859268218E+06, -5.363104753368092E+07,
2460098.500000000, A.D. 2023-Jun-03 00:00:00.0000, -4.268487681058233E+08, -1.588969308882261E+07, -5.572756986423854E+07,
2460105.500000000, A.D. 2023-Jun-10 00:00:00.0000, -4.270304584529084E+08, -2.589919160908549E+07, -5.779024693554663E+07,
2460112.500000000, A.D. 2023-Jun-17 00:00:00.0000, -4.269545326868345E+08, -3.589308274685936E+07, -5.981805373922113E+07,
2460119.500000000, A.D. 2023-Jun-24 00:00:00.0000, -4.266226707808388E+08, -4.586547393089201E+07, -6.180999527306005E+07,
2460126.500000000, A.D. 2023-Jul-01 00:00:00.0000, -4.260366520603969E+08, -5.581055713074945E+07, -6.376510612515827E+07,
2460133.500000000, A.D. 2023-Jul-08 00:00:00.0000, -4.251983516173373E+08, -6.572260665457805E+07, -6.568244984246586E+07,
2460140.500000000, A.D. 2023-Jul-15 00:00:00.0000, -4.241097391511036E+08, -7.559597814466459E+07, -6.756111819982694E+07,
2460147.500000000, A.D. 2023-Jul-22 00:00:00.0000, -4.227728767143785E+08, -8.542510981318520E+07, -6.940023077893631E+07,
$$EOE